GLOBALSTAR M082         
1 38042U 11080C   26117.51457610 -.00000081  00000+0  12497-3 0  9998
2 38042  52.0049 128.7432 0000356 144.2021 351.9110 12.62269355663190
GLOBALSTAR M092         
1 38043U 11080D   26117.54035211 -.00000106  00000+0 -14877-4 0  9995
2 38043  52.0084 219.0602 0000495 122.6154 250.0582 12.62266709661655
GLOBALSTAR M090         
1 38044U 11080E   26117.21226319 -.00000086  00000+0  97453-4 0  9998
2 38044  52.0101 123.6024 0000075  96.6801 344.1281 12.62268308663275
GLOBALSTAR M086         
1 38045U 11080F   26117.29894002 -.00000075  00000+0  15947-3 0  9992
2 38045  51.9872 123.3517 0000872 306.7910  65.6159 12.62285529663233
GLOBALSTAR M097         
1 39072U 13005A   26117.48447022 -.00000109  00000+0 -28137-4 0  9994
2 39072  52.0066  37.6738 0000446  76.7351 283.3565 12.62260057610504
GLOBALSTAR M093         
1 39073U 13005B   26117.45821522 -.00000097  00000+0  40075-4 0  9993
2 39073  52.0126  31.0838 0000332  83.4381 276.6524 12.62264651610451
GLOBALSTAR M094         
1 39074U 13005C   26117.22071951 -.00000082  00000+0  12094-3 0  9995
2 39074  51.9962 305.9781 0000649 114.4848 245.6087 12.62267873612037
GLOBALSTAR M096         
1 39075U 13005D   26117.39240463 -.00000084  00000+0  10837-3 0  9995
2 39075  52.0098 354.2155 0000655  95.2509 264.8433 12.62264385610973
GLOBALSTAR M078         
1 39076U 13005E   26117.20694745 -.00000107  00000+0 -19570-4 0  9993
2 39076  51.9870  78.8543 0001036 129.2195 230.8764 12.62266002609575
GLOBALSTAR M095         
1 39077U 13005F   26117.31294654 -.00000106  00000+0 -11615-4 0  9992
2 39077  52.0076  76.0647 0000361 128.9190 231.1709 12.62267327609442
GLOBALSTAR M087         
1 52888U 22064A   26117.40558316 -.00000104  00000+0 -24419-5 0  9995
2 52888  51.9994 217.0557 0000576 155.8346 204.2547 12.62268381184722
