[{"OBJECT_NAME":"GLOBALSTAR M082","OBJECT_ID":"2011-080C","EPOCH":"2026-04-27T12:20:59.375040","MEAN_MOTION":12.62269355,"ECCENTRICITY":3.56e-5,"INCLINATION":52.0049,"RA_OF_ASC_NODE":128.7432,"ARG_OF_PERICENTER":144.2021,"MEAN_ANOMALY":351.911,"EPHEMERIS_TYPE":0,"CLASSIFICATION_TYPE":"U","NORAD_CAT_ID":38042,"ELEMENT_SET_NO":999,"REV_AT_EPOCH":66319,"BSTAR":0.00012497,"MEAN_MOTION_DOT":-8.1e-7,"MEAN_MOTION_DDOT":0},{"OBJECT_NAME":"GLOBALSTAR M092","OBJECT_ID":"2011-080D","EPOCH":"2026-04-27T12:58:06.422304","MEAN_MOTION":12.62266709,"ECCENTRICITY":4.95e-5,"INCLINATION":52.0084,"RA_OF_ASC_NODE":219.0602,"ARG_OF_PERICENTER":122.6154,"MEAN_ANOMALY":250.0582,"EPHEMERIS_TYPE":0,"CLASSIFICATION_TYPE":"U","NORAD_CAT_ID":38043,"ELEMENT_SET_NO":999,"REV_AT_EPOCH":66165,"BSTAR":-1.4877e-5,"MEAN_MOTION_DOT":-1.06e-6,"MEAN_MOTION_DDOT":0},{"OBJECT_NAME":"GLOBALSTAR M090","OBJECT_ID":"2011-080E","EPOCH":"2026-04-27T05:05:39.539616","MEAN_MOTION":12.62268308,"ECCENTRICITY":7.59e-6,"INCLINATION":52.0101,"RA_OF_ASC_NODE":123.6024,"ARG_OF_PERICENTER":96.6801,"MEAN_ANOMALY":344.1281,"EPHEMERIS_TYPE":0,"CLASSIFICATION_TYPE":"U","NORAD_CAT_ID":38044,"ELEMENT_SET_NO":999,"REV_AT_EPOCH":66327,"BSTAR":9.7452696e-5,"MEAN_MOTION_DOT":-8.6e-7,"MEAN_MOTION_DDOT":0},{"OBJECT_NAME":"GLOBALSTAR M086","OBJECT_ID":"2011-080F","EPOCH":"2026-04-27T07:10:28.417728","MEAN_MOTION":12.62285529,"ECCENTRICITY":8.72e-5,"INCLINATION":51.9872,"RA_OF_ASC_NODE":123.3517,"ARG_OF_PERICENTER":306.791,"MEAN_ANOMALY":65.6159,"EPHEMERIS_TYPE":0,"CLASSIFICATION_TYPE":"U","NORAD_CAT_ID":38045,"ELEMENT_SET_NO":999,"REV_AT_EPOCH":66323,"BSTAR":0.00015947,"MEAN_MOTION_DOT":-7.5e-7,"MEAN_MOTION_DDOT":0},{"OBJECT_NAME":"GLOBALSTAR M097","OBJECT_ID":"2013-005A","EPOCH":"2026-04-27T11:37:38.227008","MEAN_MOTION":12.62260057,"ECCENTRICITY":4.46e-5,"INCLINATION":52.0066,"RA_OF_ASC_NODE":37.6738,"ARG_OF_PERICENTER":76.7351,"MEAN_ANOMALY":283.3565,"EPHEMERIS_TYPE":0,"CLASSIFICATION_TYPE":"U","NORAD_CAT_ID":39072,"ELEMENT_SET_NO":999,"REV_AT_EPOCH":61050,"BSTAR":-2.8137e-5,"MEAN_MOTION_DOT":-1.09e-6,"MEAN_MOTION_DDOT":0},{"OBJECT_NAME":"GLOBALSTAR M093","OBJECT_ID":"2013-005B","EPOCH":"2026-04-27T10:59:49.795008","MEAN_MOTION":12.62264651,"ECCENTRICITY":3.32e-5,"INCLINATION":52.0126,"RA_OF_ASC_NODE":31.0838,"ARG_OF_PERICENTER":83.4381,"MEAN_ANOMALY":276.6524,"EPHEMERIS_TYPE":0,"CLASSIFICATION_TYPE":"U","NORAD_CAT_ID":39073,"ELEMENT_SET_NO":999,"REV_AT_EPOCH":61045,"BSTAR":4.0075e-5,"MEAN_MOTION_DOT":-9.7e-7,"MEAN_MOTION_DDOT":0},{"OBJECT_NAME":"GLOBALSTAR M094","OBJECT_ID":"2013-005C","EPOCH":"2026-04-27T05:17:50.165664","MEAN_MOTION":12.62267873,"ECCENTRICITY":6.49e-5,"INCLINATION":51.9962,"RA_OF_ASC_NODE":305.9781,"ARG_OF_PERICENTER":114.4848,"MEAN_ANOMALY":245.6087,"EPHEMERIS_TYPE":0,"CLASSIFICATION_TYPE":"U","NORAD_CAT_ID":39074,"ELEMENT_SET_NO":999,"REV_AT_EPOCH":61203,"BSTAR":0.00012094,"MEAN_MOTION_DOT":-8.2e-7,"MEAN_MOTION_DDOT":0},{"OBJECT_NAME":"GLOBALSTAR M096","OBJECT_ID":"2013-005D","EPOCH":"2026-04-27T09:25:03.760032","MEAN_MOTION":12.62264385,"ECCENTRICITY":6.55e-5,"INCLINATION":52.0098,"RA_OF_ASC_NODE":354.2155,"ARG_OF_PERICENTER":95.2509,"MEAN_ANOMALY":264.8433,"EPHEMERIS_TYPE":0,"CLASSIFICATION_TYPE":"U","NORAD_CAT_ID":39075,"ELEMENT_SET_NO":999,"REV_AT_EPOCH":61097,"BSTAR":0.00010837,"MEAN_MOTION_DOT":-8.4e-7,"MEAN_MOTION_DDOT":0},{"OBJECT_NAME":"GLOBALSTAR M078","OBJECT_ID":"2013-005E","EPOCH":"2026-04-27T04:58:00.259680","MEAN_MOTION":12.62266002,"ECCENTRICITY":0.00010368,"INCLINATION":51.987,"RA_OF_ASC_NODE":78.8543,"ARG_OF_PERICENTER":129.2195,"MEAN_ANOMALY":230.8764,"EPHEMERIS_TYPE":0,"CLASSIFICATION_TYPE":"U","NORAD_CAT_ID":39076,"ELEMENT_SET_NO":999,"REV_AT_EPOCH":60957,"BSTAR":-1.956993e-5,"MEAN_MOTION_DOT":-1.07e-6,"MEAN_MOTION_DDOT":0},{"OBJECT_NAME":"GLOBALSTAR M095","OBJECT_ID":"2013-005F","EPOCH":"2026-04-27T07:30:38.581056","MEAN_MOTION":12.62267327,"ECCENTRICITY":3.61e-5,"INCLINATION":52.0076,"RA_OF_ASC_NODE":76.0647,"ARG_OF_PERICENTER":128.919,"MEAN_ANOMALY":231.1709,"EPHEMERIS_TYPE":0,"CLASSIFICATION_TYPE":"U","NORAD_CAT_ID":39077,"ELEMENT_SET_NO":999,"REV_AT_EPOCH":60944,"BSTAR":-1.1615e-5,"MEAN_MOTION_DOT":-1.06e-6,"MEAN_MOTION_DDOT":0},{"OBJECT_NAME":"GLOBALSTAR M087","OBJECT_ID":"2022-064A","EPOCH":"2026-04-27T09:44:02.385024","MEAN_MOTION":12.62268381,"ECCENTRICITY":5.76e-5,"INCLINATION":51.9994,"RA_OF_ASC_NODE":217.0557,"ARG_OF_PERICENTER":155.8346,"MEAN_ANOMALY":204.2547,"EPHEMERIS_TYPE":0,"CLASSIFICATION_TYPE":"U","NORAD_CAT_ID":52888,"ELEMENT_SET_NO":999,"REV_AT_EPOCH":18472,"BSTAR":-2.4419e-6,"MEAN_MOTION_DOT":-1.04e-6,"MEAN_MOTION_DDOT":0}]
